ACS3                    
1 59588U 24077B   24234.72231040  .00000098  00000+0  14997-3 0  9998
2 59588  97.4015 287.6683 0018801 275.4703  84.4304 13.67699839 16369
